{
  "norad_id": 64117,
  "name": "STARLINK-34122",
  "history": [
    {
      "epoch": "2026-03-28T21:02:36.231072",
      "apogee_km": 476.0143124006536,
      "perigee_km": 474.41775527789105,
      "latitude_deg": 29.863069079899947,
      "longitude_deg": -44.126409920165315,
      "semi_major_axis_km": 6853.353033839272,
      "eccentricity": 0.00011648,
      "inclination_deg": 53.1589,
      "raan_deg": 297.3854,
      "arg_perigee_deg": 82.2224,
      "mean_anomaly_deg": 277.8909,
      "mean_motion_rev_day": 15.30199677
    }
  ]
}